0 COSMOS 2251 DEB
1 34909U 93036ADE 13281.60921417  .00001479  00000-0  28606-3 0  3946
2 34909 074.0216 015.6700 0113569 186.1501 235.7551 14.60263957241900
0 COSMOS 2251 DEB
1 34909U 93036ADE 13283.95012851  .00002473  00000-0  47381-3 0  3956
2 34909 074.0218 011.1971 0113559 181.0926 301.8802 14.60276405242241
0 COSMOS 2251 DEB
1 34909U 93036ADE 13287.22149227  .00002082  00000-0  39994-3 0  3966
2 34909 074.0221 004.9446 0113393 174.0248 219.4976 14.60288999242727
0 COSMOS 2251 DEB
1 34909U 93036ADE 13289.55696880  .00002346  00000-0  44980-3 0  3971
2 34909 074.0214 000.4805 0113233 168.9541 257.2615 14.60300356243060
0 COSMOS 2251 DEB
1 34909U 93036ADE 13292.50168117  .00001764  00000-0  33982-3 0  3981
2 34909 074.0211 354.8538 0113055 162.6008 257.8821 14.60309410243499
0 COSMOS 2251 DEB
1 34909U 93036ADE 13295.51731661  .00001280  00000-0  24830-3 0  3991
2 34909 074.0193 349.0844 0112868 155.9864 271.5451 14.60319447243932
